KUIPER-00572            
1 69272U 26118F   26202.25003472 -.01813520  00000+0 -10965+0 0  9990
2 69272  51.8788 249.7959 0003243 317.8923  69.3497 15.13577125  3586
KUIPER-00581            
1 69273U 26118G   26202.25003472 -.00064670  00000+0 -69761-2 0  9995
2 69273  51.8998 252.7348 0005356 310.1966  17.0566 14.88222321  3545
KUIPER-00584            
1 69274U 26118H   26202.25003472 -.00067170  00000+0 -83959-2 0  9999
2 69274  51.9002 255.1702 0008575 335.0841 179.6049 14.82192995  5795
KUIPER-00587            
1 69275U 26118J   26202.25003472 -.00018996  00000+0 -63192-3 0  9990
2 69275  51.8661 248.9277 0007691 322.4539 169.5662 15.30078242  5729
KUIPER-00590            
1 69276U 26118K   26202.25003472 -.00046444  00000+0 -36085-2 0  9990
2 69276  51.8894 250.9083 0002702   5.8016 287.3937 15.00920014  3784
KUIPER-00592            
1 69277U 26118L   26202.25003472 -.00096670  00000+0 -68916-2 0  9995
2 69277  51.8844 250.4716 0002461 226.4600 299.7151 15.04540400  5429
KUIPER-00593            
1 69278U 26118M   26202.16093051  .00019567  00000+0  51060-3 0  9999
2 69278  51.8702 248.6307 0002767 308.7383  51.3356 15.38817667  9274
KUIPER-00594            
1 69279U 26118N   26201.38611153  .00004288  00000+0  12515-3 0  9998
2 69279  51.8693 252.4360 0001986  90.5970 269.5245 15.37506291  9093
KUIPER-00595            
1 69280U 26118P   26201.84367011  .00015469  00000+0  42313-3 0  9994
2 69280  51.8701 250.2506 0001505  16.2037 343.8998 15.37540236  9198
KUIPER-00596            
1 69281U 26118Q   26202.25003472 -.00064384  00000+0 -81276-2 0  9991
2 69281  51.9014 255.0523 0006398 351.9823 255.9801 14.81772951  5467
KUIPER-00597            
1 69282U 26118R   26201.41430743  .00011537  00000+0  31497-3 0  9995
2 69282  51.8634 252.5953 0006285 309.8183  50.2250 15.37864882  9094
KUIPER-00599            
1 69283U 26118S   26202.25003472 -.00879918  00000+0 -37418-1 0  9998
2 69283  51.8758 248.8450 0005702 306.5394 254.7519 15.25355792  4358
KUIPER-00600            
1 69284U 26118T   26201.36075485  .00012591  00000+0  34636-3 0  9998
2 69284  51.8621 252.9790 0008049 309.1896  50.8375 15.37528222  9087
KUIPER-00601            
1 69285U 26118U   26202.25003472 -.00356032  00000+0 -27377-1 0  9990
2 69285  51.9042 250.6345 0002398 308.9071  62.7358 15.03150094  4977
KUIPER-00602            
1 69286U 26118V   26202.25003472 -.00028293  00000+0 -80882-3 0  9998
2 69286  51.8699 248.2661 0002597 309.4780 153.9364 15.35148394  5609
KUIPER-00603            
1 69287U 26118W   26202.25003472 -.01188571  00000+0 -48125-1 0  9998
2 69287  51.8737 248.7079 0002922 302.5594 275.7934 15.26925797  5156
