{"fetched_at":"2026-07-21T17:53:03.255Z","source":"https://celestrak.org/NORAD/elements/gp.php?GROUP=kuiper&FORMAT=JSON","constellation":"kuiper","records":[{"OBJECT_NAME":"KUIPER-00572","OBJECT_ID":"2026-118F","EPOCH":"2026-07-21T06:00:02.999808","CLASSIFICATION_TYPE":"U","MEAN_MOTION":15.13577125,"ECCENTRICITY":0.00032438,"INCLINATION":51.8788,"RA_OF_ASC_NODE":249.7959,"ARG_OF_PERICENTER":317.8923,"MEAN_ANOMALY":69.3497,"EPHEMERIS_TYPE":0,"NORAD_CAT_ID":69272,"ELEMENT_SET_NO":999,"REV_AT_EPOCH":358,"BSTAR":-0.10964856,"MEAN_MOTION_DOT":-0.0181352,"MEAN_MOTION_DDOT":0},{"OBJECT_NAME":"KUIPER-00581","OBJECT_ID":"2026-118G","EPOCH":"2026-07-21T06:00:02.999808","CLASSIFICATION_TYPE":"U","MEAN_MOTION":14.88222321,"ECCENTRICITY":0.00053562,"INCLINATION":51.8998,"RA_OF_ASC_NODE":252.7348,"ARG_OF_PERICENTER":310.1966,"MEAN_ANOMALY":17.0566,"EPHEMERIS_TYPE":0,"NORAD_CAT_ID":69273,"ELEMENT_SET_NO":999,"REV_AT_EPOCH":354,"BSTAR":-0.0069760601,"MEAN_MOTION_DOT":-0.0006467,"MEAN_MOTION_DDOT":0},{"OBJECT_NAME":"KUIPER-00584","OBJECT_ID":"2026-118H","EPOCH":"2026-07-21T06:00:02.999808","CLASSIFICATION_TYPE":"U","MEAN_MOTION":14.82192995,"ECCENTRICITY":0.00085757,"INCLINATION":51.9002,"RA_OF_ASC_NODE":255.1702,"ARG_OF_PERICENTER":335.0841,"MEAN_ANOMALY":179.6049,"EPHEMERIS_TYPE":0,"NORAD_CAT_ID":69274,"ELEMENT_SET_NO":999,"REV_AT_EPOCH":579,"BSTAR":-0.0083959089,"MEAN_MOTION_DOT":-0.0006717,"MEAN_MOTION_DDOT":0},{"OBJECT_NAME":"KUIPER-00587","OBJECT_ID":"2026-118J","EPOCH":"2026-07-21T06:00:02.999808","CLASSIFICATION_TYPE":"U","MEAN_MOTION":15.30078242,"ECCENTRICITY":0.00076911,"INCLINATION":51.8661,"RA_OF_ASC_NODE":248.9277,"ARG_OF_PERICENTER":322.4539,"MEAN_ANOMALY":169.5662,"EPHEMERIS_TYPE":0,"NORAD_CAT_ID":69275,"ELEMENT_SET_NO":999,"REV_AT_EPOCH":572,"BSTAR":-0.00063191789,"MEAN_MOTION_DOT":-0.00018996,"MEAN_MOTION_DDOT":0},{"OBJECT_NAME":"KUIPER-00590","OBJECT_ID":"2026-118K","EPOCH":"2026-07-21T06:00:02.999808","CLASSIFICATION_TYPE":"U","MEAN_MOTION":15.00920014,"ECCENTRICITY":0.00027028,"INCLINATION":51.8894,"RA_OF_ASC_NODE":250.9083,"ARG_OF_PERICENTER":5.8016,"MEAN_ANOMALY":287.3937,"EPHEMERIS_TYPE":0,"NORAD_CAT_ID":69276,"ELEMENT_SET_NO":999,"REV_AT_EPOCH":378,"BSTAR":-0.0036084949,"MEAN_MOTION_DOT":-0.00046444,"MEAN_MOTION_DDOT":0},{"OBJECT_NAME":"KUIPER-00592","OBJECT_ID":"2026-118L","EPOCH":"2026-07-21T06:00:02.999808","CLASSIFICATION_TYPE":"U","MEAN_MOTION":15.045404,"ECCENTRICITY":0.00024615,"INCLINATION":51.8844,"RA_OF_ASC_NODE":250.4716,"ARG_OF_PERICENTER":226.46,"MEAN_ANOMALY":299.7151,"EPHEMERIS_TYPE":0,"NORAD_CAT_ID":69277,"ELEMENT_SET_NO":999,"REV_AT_EPOCH":542,"BSTAR":-0.0068916122,"MEAN_MOTION_DOT":-0.0009667,"MEAN_MOTION_DDOT":0},{"OBJECT_NAME":"KUIPER-00593","OBJECT_ID":"2026-118M","EPOCH":"2026-07-21T03:51:44.396064","CLASSIFICATION_TYPE":"U","MEAN_MOTION":15.38817667,"ECCENTRICITY":0.00027675,"INCLINATION":51.8702,"RA_OF_ASC_NODE":248.6307,"ARG_OF_PERICENTER":308.7383,"MEAN_ANOMALY":51.3356,"EPHEMERIS_TYPE":0,"NORAD_CAT_ID":69278,"ELEMENT_SET_NO":999,"REV_AT_EPOCH":927,"BSTAR":0.00051059616,"MEAN_MOTION_DOT":0.00019567,"MEAN_MOTION_DDOT":0},{"OBJECT_NAME":"KUIPER-00594","OBJECT_ID":"2026-118N","EPOCH":"2026-07-20T09:16:00.036192","CLASSIFICATION_TYPE":"U","MEAN_MOTION":15.37506291,"ECCENTRICITY":0.0001986,"INCLINATION":51.8693,"RA_OF_ASC_NODE":252.436,"ARG_OF_PERICENTER":90.597,"MEAN_ANOMALY":269.5245,"EPHEMERIS_TYPE":0,"NORAD_CAT_ID":69279,"ELEMENT_SET_NO":999,"REV_AT_EPOCH":909,"BSTAR":0.00012515,"MEAN_MOTION_DOT":0.00004288,"MEAN_MOTION_DDOT":0},{"OBJECT_NAME":"KUIPER-00595","OBJECT_ID":"2026-118P","EPOCH":"2026-07-20T20:14:53.097504","CLASSIFICATION_TYPE":"U","MEAN_MOTION":15.37540236,"ECCENTRICITY":0.00015055,"INCLINATION":51.8701,"RA_OF_ASC_NODE":250.2506,"ARG_OF_PERICENTER":16.2037,"MEAN_ANOMALY":343.8998,"EPHEMERIS_TYPE":0,"NORAD_CAT_ID":69280,"ELEMENT_SET_NO":999,"REV_AT_EPOCH":919,"BSTAR":0.00042313119,"MEAN_MOTION_DOT":0.00015469,"MEAN_MOTION_DDOT":0},{"OBJECT_NAME":"KUIPER-00596","OBJECT_ID":"2026-118Q","EPOCH":"2026-07-21T06:00:02.999808","CLASSIFICATION_TYPE":"U","MEAN_MOTION":14.81772951,"ECCENTRICITY":0.00063985,"INCLINATION":51.9014,"RA_OF_ASC_NODE":255.0523,"ARG_OF_PERICENTER":351.9823,"MEAN_ANOMALY":255.9801,"EPHEMERIS_TYPE":0,"NORAD_CAT_ID":69281,"ELEMENT_SET_NO":999,"REV_AT_EPOCH":546,"BSTAR":-0.0081275572,"MEAN_MOTION_DOT":-0.00064384,"MEAN_MOTION_DDOT":0},{"OBJECT_NAME":"KUIPER-00597","OBJECT_ID":"2026-118R","EPOCH":"2026-07-20T09:56:36.161952","CLASSIFICATION_TYPE":"U","MEAN_MOTION":15.37864882,"ECCENTRICITY":0.00062852,"INCLINATION":51.8634,"RA_OF_ASC_NODE":252.5953,"ARG_OF_PERICENTER":309.8183,"MEAN_ANOMALY":50.225,"EPHEMERIS_TYPE":0,"NORAD_CAT_ID":69282,"ELEMENT_SET_NO":999,"REV_AT_EPOCH":909,"BSTAR":0.00031497313,"MEAN_MOTION_DOT":0.00011537,"MEAN_MOTION_DDOT":0},{"OBJECT_NAME":"KUIPER-00599","OBJECT_ID":"2026-118S","EPOCH":"2026-07-21T06:00:02.999808","CLASSIFICATION_TYPE":"U","MEAN_MOTION":15.25355792,"ECCENTRICITY":0.00057028,"INCLINATION":51.8758,"RA_OF_ASC_NODE":248.845,"ARG_OF_PERICENTER":306.5394,"MEAN_ANOMALY":254.7519,"EPHEMERIS_TYPE":0,"NORAD_CAT_ID":69283,"ELEMENT_SET_NO":999,"REV_AT_EPOCH":435,"BSTAR":-0.037418029,"MEAN_MOTION_DOT":-0.00879918,"MEAN_MOTION_DDOT":0},{"OBJECT_NAME":"KUIPER-00600","OBJECT_ID":"2026-118T","EPOCH":"2026-07-20T08:39:29.219040","CLASSIFICATION_TYPE":"U","MEAN_MOTION":15.37528222,"ECCENTRICITY":0.0008049,"INCLINATION":51.8621,"RA_OF_ASC_NODE":252.979,"ARG_OF_PERICENTER":309.1896,"MEAN_ANOMALY":50.8375,"EPHEMERIS_TYPE":0,"NORAD_CAT_ID":69284,"ELEMENT_SET_NO":999,"REV_AT_EPOCH":908,"BSTAR":0.00034636,"MEAN_MOTION_DOT":0.00012591,"MEAN_MOTION_DDOT":0},{"OBJECT_NAME":"KUIPER-00601","OBJECT_ID":"2026-118U","EPOCH":"2026-07-21T06:00:02.999808","CLASSIFICATION_TYPE":"U","MEAN_MOTION":15.03150094,"ECCENTRICITY":0.00023985,"INCLINATION":51.9042,"RA_OF_ASC_NODE":250.6345,"ARG_OF_PERICENTER":308.9071,"MEAN_ANOMALY":62.7358,"EPHEMERIS_TYPE":0,"NORAD_CAT_ID":69285,"ELEMENT_SET_NO":999,"REV_AT_EPOCH":497,"BSTAR":-0.027377108,"MEAN_MOTION_DOT":-0.00356032,"MEAN_MOTION_DDOT":0},{"OBJECT_NAME":"KUIPER-00602","OBJECT_ID":"2026-118V","EPOCH":"2026-07-21T06:00:02.999808","CLASSIFICATION_TYPE":"U","MEAN_MOTION":15.35148394,"ECCENTRICITY":0.00025975,"INCLINATION":51.8699,"RA_OF_ASC_NODE":248.2661,"ARG_OF_PERICENTER":309.478,"MEAN_ANOMALY":153.9364,"EPHEMERIS_TYPE":0,"NORAD_CAT_ID":69286,"ELEMENT_SET_NO":999,"REV_AT_EPOCH":560,"BSTAR":-0.00080882193,"MEAN_MOTION_DOT":-0.00028293,"MEAN_MOTION_DDOT":0},{"OBJECT_NAME":"KUIPER-00603","OBJECT_ID":"2026-118W","EPOCH":"2026-07-21T06:00:02.999808","CLASSIFICATION_TYPE":"U","MEAN_MOTION":15.26925797,"ECCENTRICITY":0.00029229,"INCLINATION":51.8737,"RA_OF_ASC_NODE":248.7079,"ARG_OF_PERICENTER":302.5594,"MEAN_ANOMALY":275.7934,"EPHEMERIS_TYPE":0,"NORAD_CAT_ID":69287,"ELEMENT_SET_NO":999,"REV_AT_EPOCH":515,"BSTAR":-0.048125323,"MEAN_MOTION_DOT":-0.01188571,"MEAN_MOTION_DDOT":0}]}
